STARLINK-30860
1 58234U 23171E   26061.16668981  .02590655  00000+0  12887+0 0  9992
2 58234  43.0002 326.8423 0001900 280.5342 102.7712 15.13460336  5811
STARLINK-30976
1 58447U 23183L   26061.16668981  .01253744  00000+0  63722-1 0  9991
2 58447  43.0003  83.5702 0001687 264.4657 336.0506 15.13453429  5826
STARLINK-30977
1 58459U 23183Y   26061.16668981  .01723526  00000+0  86913-1 0  9991
2 58459  42.9994  83.9109 0001280 286.7568 152.6545 15.13254168  5811
STARLINK-30846
1 58210U 23170E   26061.16668981  .01100453  00000+0  56167-1 0  9998
2 58210  42.9996 236.7426 0001479 277.7725 257.6487 15.13208824  5823
STARLINK-31038
1 58605U 23200S   26061.16668981  .02476747  00000+0  12314+0 0  9997
2 58605  43.0009 210.7741 0000867 304.0013 170.5591 15.13022601  5628
STARLINK-30765
1 58119U 23162B   26061.16668981  .01273173  00000+0  65627-1 0  9998
2 58119  43.0009 174.0521 0001324 268.1773 222.0986 15.12903432  5370
STARLINK-30164
1 57500U 23113F   26061.16668981  .00752496  00000+0  39454-1 0  9995
2 57500  43.0002  57.7659 0001208 257.6326 108.7454 15.12820169  5817
STARLINK-30387
1 57788U 23134T   26061.16668981  .00682878  00000+0  35736-1 0  9991
2 57788  43.0002 224.7376 0001723 282.0750 286.6005 15.12729387  5821
STARLINK-6085
1 57115U 23090Q   26061.07686905  .00027048  00000+0  15221-2 0  9992
2 57115  42.9996 305.3919 0017344 157.9980 202.1614 15.12643169149398
STARLINK-30508
1 57979U 23151R   26061.16668981  .01611708  00000+0  83269-1 0  9991
2 57979  43.0014  32.7026 0001154 262.0380 259.7376 15.12599387  5726
STARLINK-30471
1 57932U 23147V   26061.16668981  .00080869  00000+0  45201-2 0  9997
2 57932  43.0008   6.2730 0002067 270.2004 100.0030 15.12539969  5819
STARLINK-30074
1 57508U 23113P   26061.16668981  .00051079  00000+0  28863-2 0  9995
2 57508  42.9999  57.7346 0002194 277.9660  98.6088 15.12356165  5812
STARLINK-30769
1 58138U 23162W   26061.16668981  .01210908  00000+0  63637-1 0  9995
2 58138  43.0009 174.1338 0001402 266.6983 188.0150 15.12350087  5827
STARLINK-30790
1 58127U 23162K   26061.02484754  .00050784  00000+0  28703-2 0  9991
2 58127  42.9995 169.9461 0010594 343.2055  16.8439 15.12308234131207
STARLINK-30075
1 57616U 23119Q   26061.16668981  .00095279  00000+0  53703-2 0  9992
2 57616  42.9997 122.7796 0001521 253.8368   6.9642 15.12152711  5812
STARLINK-30095
1 56289U 23056D   26061.16668981  .01385421  00000+0  72416-1 0  9990
2 56289  43.0009 224.9429 0001794 301.0795  34.3443 15.12146646  5660
STARLINK-30501
1 57917U 23147E   26061.16668981  .01218787  00000+0  64466-1 0  9996
2 57917  43.0006   7.0371 0001570 265.8024 148.1651 15.12100069  5817
STARLINK-30108
1 56299U 23056P   26060.88375141  .00009463  00000+0  55371-3 0  9993
2 56299  43.0012 239.3019 0002521 283.6332  76.4233 15.11992730159061
STARLINK-30249
1 57618U 23119S   26061.16668981  .00100729  00000+0  57035-2 0  9993
2 57618  43.0002 122.7092 0002034 263.2549  26.0638 15.11956590  5766
STARLINK-30084
1 56825U 23079C   26061.16668981  .00102701  00000+0  58139-2 0  9995
2 56825  43.0005 148.0869 0002305 286.5803 108.0842 15.11952061  5715
STARLINK-30103
1 56290U 23056E   26061.16668981  .01722799  00000+0  90168-1 0  9999
2 56290  43.0011 250.6912 0000931 268.9777 238.4352 15.11915424  5811
STARLINK-31069
1 58607U 23200U   26061.16668981  .02445719  00000+0  12793+0 0  9995
2 58607  43.0009 210.7735 0000946 302.9384 171.3778 15.11850552  5829
